[{"OBJECT_NAME":"STARLINK-4635","OBJECT_ID":"2022-125C","EPOCH":"2026-03-09T16:57:55.167264","MEAN_MOTION":15.08840702,"ECCENTRICITY":0.00014519,"INCLINATION":53.2169,"RA_OF_ASC_NODE":224.1188,"ARG_OF_PERICENTER":94.1506,"MEAN_ANOMALY":265.9652,"EPHEMERIS_TYPE":0,"CLASSIFICATION_TYPE":"U","NORAD_CAT_ID":53966,"ELEMENT_SET_NO":999,"REV_AT_EPOCH":18932,"BSTAR":7.7648904e-5,"MEAN_MOTION_DOT":9.48e-6,"MEAN_MOTION_DDOT":0},{"OBJECT_NAME":"RAPIDEYE 3","OBJECT_ID":"2008-040D","EPOCH":"2026-03-09T19:34:21.496512","MEAN_MOTION":15.06489596,"ECCENTRICITY":0.00114187,"INCLINATION":97.3959,"RA_OF_ASC_NODE":102.9968,"ARG_OF_PERICENTER":27.1842,"MEAN_ANOMALY":332.9981,"EPHEMERIS_TYPE":0,"CLASSIFICATION_TYPE":"U","NORAD_CAT_ID":33315,"ELEMENT_SET_NO":999,"REV_AT_EPOCH":95131,"BSTAR":0.00019030529,"MEAN_MOTION_DOT":2.754e-5,"MEAN_MOTION_DDOT":0}]
